{"type": "FeatureCollection", "features": [ {"type": "Feature", "properties": {"norad_id": 37216, "name": "COSMO-SKYMED 4", "group": "resource", "lat": -63.68898358926374, "lon": -27.39150569031971, "alt_km": 630.6208372516239, "timestamp": "2025-12-13T13:34:34.731570+00:00", "meta": {"OBJECT_NAME": "COSMO-SKYMED 4", "OBJECT_ID": "2010-060A", "EPOCH": "2025-12-13T01:08:01.301856", "MEAN_MOTION": 14.82169217, "ECCENTRICITY": 0.00013476, "INCLINATION": 97.8809, "RA_OF_ASC_NODE": 168.3659, "ARG_OF_PERICENTER": 76.9212, "MEAN_ANOMALY": 283.2151, "EPHEMERIS_TYPE": 0, "CLASSIFICATION_TYPE": "U", "NORAD_CAT_ID": 37216, "ELEMENT_SET_NO": 999, "REV_AT_EPOCH": 81699, "BSTAR": 0.00010904155, "MEAN_MOTION_DOT": 8.16e-06, "MEAN_MOTION_DDOT": 0}, "tle": {"line1": "1 37216U 10060A   25347.04723729  .00000816  00000+0  10904-3 0  9992", "line2": "2 37216  97.8809 168.3659 0001347  76.9212 283.2151 14.82169217816998"}}, "geometry": {"type": "Point", "coordinates": [-27.39150569031971, -63.68898358926374]}}, {"type": "Feature", "properties": {"norad_id": 37387, "name": "RESOURCESAT-2", "group": "resource", "lat": 29.409216758474386, "lon": 46.111436040369966, "alt_km": 813.9062867781658, "timestamp": "2025-12-13T13:34:34.731579+00:00", "meta": {"OBJECT_NAME": "RESOURCESAT-2", "OBJECT_ID": "2011-015A", "EPOCH": "2025-12-12T22:14:02.571360", "MEAN_MOTION": 14.21597368, "ECCENTRICITY": 0.0006432, "INCLINATION": 98.7878, "RA_OF_ASC_NODE": 50.4774, "ARG_OF_PERICENTER": 42.2892, "MEAN_ANOMALY": 317.878, "EPHEMERIS_TYPE": 0, "CLASSIFICATION_TYPE": "U", "NORAD_CAT_ID": 37387, "ELEMENT_SET_NO": 999, "REV_AT_EPOCH": 75971, "BSTAR": 0.00013092334, "MEAN_MOTION_DOT": 2.43e-06, "MEAN_MOTION_DDOT": 0}, "tle": {"line1": "1 37387U 11015A   25346.92641865  .00000243  00000+0  13092-3 0  9993", "line2": "2 37387  98.7878  50.4774 0006432  42.2892 317.8780 14.21597368759715"}}, "geometry": {"type": "Point", "coordinates": [46.111436040369966, 29.409216758474386]}}, {"type": "Feature", "properties": {"norad_id": 37781, "name": "HAIYANG-2A", "group": "resource", "lat": -48.402018023901526, "lon": -0.8314892680894953, "alt_km": 975.5648733080334, "timestamp": "2025-12-13T13:34:34.731589+00:00", "meta": {"OBJECT_NAME": "HAIYANG-2A", "OBJECT_ID": "2011-043A", "EPOCH": "2025-12-12T23:52:57.643104", "MEAN_MOTION": 13.78834734, "ECCENTRICITY": 0.00016494, "INCLINATION": 99.3384, "RA_OF_ASC_NODE": 347.9255, "ARG_OF_PERICENTER": 82.4875, "MEAN_ANOMALY": 277.6464, "EPHEMERIS_TYPE": 0, "CLASSIFICATION_TYPE": "U", "NORAD_CAT_ID": 37781, "ELEMENT_SET_NO": 999, "REV_AT_EPOCH": 72102, "BSTAR": -6.4391049e-05, "MEAN_MOTION_DOT": -1.1e-06, "MEAN_MOTION_DDOT": 0}, "tle": {"line1": "1 37781U 11043A   25346.99511161 -.00000110  00000+0 -64391-4 0  9998", "line2": "2 37781  99.3384 347.9255 0001649  82.4875 277.6464 13.78834734721029"}}, "geometry": {"type": "Point", "coordinates": [-0.8314892680894953, -48.402018023901526]}}, {"type": "Feature", "properties": {"norad_id": 37791, "name": "RASAT", "group": "resource", "lat": -28.148598512613315, "lon": 81.16114406540292, "alt_km": 673.7732953199638, "timestamp": "2025-12-13T13:34:34.731599+00:00", "meta": {"OBJECT_NAME": "RASAT", "OBJECT_ID": "2011-044D", "EPOCH": "2025-12-13T01:10:59.253024", "MEAN_MOTION": 14.67911167, "ECCENTRICITY": 0.0021913, "INCLINATION": 98.0645, "RA_OF_ASC_NODE": 76.3019, "ARG_OF_PERICENTER": 64.1488, "MEAN_ANOMALY": 60.5782, "EPHEMERIS_TYPE": 0, "CLASSIFICATION_TYPE": "U", "NORAD_CAT_ID": 37791, "ELEMENT_SET_NO": 999, "REV_AT_EPOCH": 76587, "BSTAR": 0.0002249344, "MEAN_MOTION_DOT": 1.242e-05, "MEAN_MOTION_DDOT": 0}, "tle": {"line1": "1 37791U 11044D   25347.04929691  .00001242  00000+0  22493-3 0  9999", "line2": "2 37791  98.0645  76.3019 0021913  64.1488  60.5782 14.67911167765878"}}, "geometry": {"type": "Point", "coordinates": [81.16114406540292, -28.148598512613315]}}, {"type": "Feature", "properties": {"norad_id": 37841, "name": "SRMSAT", "group": "resource", "lat": -12.550088524603797, "lon": 65.14941583075613, "alt_km": 844.8563900764029, "timestamp": "2025-12-13T13:34:34.731622+00:00", "meta": {"OBJECT_NAME": "SRMSAT", "OBJECT_ID": "2011-058D", "EPOCH": "2025-12-13T00:55:22.594944", "MEAN_MOTION": 14.11511594, "ECCENTRICITY": 0.00117679, "INCLINATION": 19.971, "RA_OF_ASC_NODE": 106.1426, "ARG_OF_PERICENTER": 316.7615, "MEAN_ANOMALY": 198.8861, "EPHEMERIS_TYPE": 0, "CLASSIFICATION_TYPE": "U", "NORAD_CAT_ID": 37841, "ELEMENT_SET_NO": 999, "REV_AT_EPOCH": 73148, "BSTAR": 0.00013117397, "MEAN_MOTION_DOT": 5.06e-06, "MEAN_MOTION_DDOT": 0}, "tle": {"line1": "1 37841U 11058D   25347.03845596  .00000506  00000+0  13117-3 0  9995", "line2": "2 37841  19.9710 106.1426 0011767 316.7615 198.8861 14.11511594731489"}}, "geometry": {"type": "Point", "coordinates": [65.14941583075613, -12.550088524603797]}}, {"type": "Feature", "properties": {"norad_id": 38012, "name": "PLEIADES 1A", "group": "resource", "lat": 77.62280314672776, "lon": -78.71270442766266, "alt_km": 689.6915209026029, "timestamp": "2025-12-13T13:34:34.731632+00:00", "meta": {"OBJECT_NAME": "PLEIADES 1A", "OBJECT_ID": "2011-076F", "EPOCH": "2025-12-13T00:30:43.254144", "MEAN_MOTION": 14.58562174, "ECCENTRICITY": 0.00013252, "INCLINATION": 98.1818, "RA_OF_ASC_NODE": 59.7851, "ARG_OF_PERICENTER": 74.2426, "MEAN_ANOMALY": 48.477, "EPHEMERIS_TYPE": 0, "CLASSIFICATION_TYPE": "U", "NORAD_CAT_ID": 38012, "ELEMENT_SET_NO": 999, "REV_AT_EPOCH": 74485, "BSTAR": 0.00017948983, "MEAN_MOTION_DOT": 7.89e-06, "MEAN_MOTION_DDOT": 0}, "tle": {"line1": "1 38012U 11076F   25347.02133396  .00000789  00000+0  17949-3 0  9993", "line2": "2 38012  98.1818  59.7851 0001325  74.2426  48.4770 14.58562174744853"}}, "geometry": {"type": "Point", "coordinates": [-78.71270442766266, 77.62280314672776]}}, {"type": "Feature", "properties": {"norad_id": 38038, "name": "ZIYUAN 1-02C (ZY 1-02C)", "group": "resource", "lat": -53.13388562943721, "lon": 64.97336898870404, "alt_km": 777.1051245487142, "timestamp": "2025-12-13T13:34:34.731642+00:00", "meta": {"OBJECT_NAME": "ZIYUAN 1-02C (ZY 1-02C)", "OBJECT_ID": "2011-079A", "EPOCH": "2025-12-13T01:00:51.257088", "MEAN_MOTION": 14.38013046, "ECCENTRICITY": 0.00072061, "INCLINATION": 98.4328, "RA_OF_ASC_NODE": 53.0499, "ARG_OF_PERICENTER": 137.541, "MEAN_ANOMALY": 340.4418, "EPHEMERIS_TYPE": 0, "CLASSIFICATION_TYPE": "U", "NORAD_CAT_ID": 38038, "ELEMENT_SET_NO": 999, "REV_AT_EPOCH": 73245, "BSTAR": 0.00032214145, "MEAN_MOTION_DOT": 9.32e-06, "MEAN_MOTION_DDOT": 0}, "tle": {"line1": "1 38038U 11079A   25347.04225992  .00000932  00000+0  32214-3 0  9992", "line2": "2 38038  98.4328  53.0499 0007206 137.5410 340.4418 14.38013046732459"}}, "geometry": {"type": "Point", "coordinates": [64.97336898870404, -53.13388562943721]}}, {"type": "Feature", "properties": {"norad_id": 38046, "name": "ZIYUAN 3-1 (ZY 3-1)", "group": "resource", "lat": 50.13131519832623, "lon": -117.32205372191122, "alt_km": 358.93520874756996, "timestamp": "2025-12-13T13:34:34.731652+00:00", "meta": {"OBJECT_NAME": "ZIYUAN 3-1 (ZY 3-1)", "OBJECT_ID": "2012-001A", "EPOCH": "2025-12-13T00:46:46.126848", "MEAN_MOTION": 15.68632332, "ECCENTRICITY": 0.00017419, "INCLINATION": 97.1753, "RA_OF_ASC_NODE": 53.4564, "ARG_OF_PERICENTER": 351.2292, "MEAN_ANOMALY": 8.8939, "EPHEMERIS_TYPE": 0, "CLASSIFICATION_TYPE": "U", "NORAD_CAT_ID": 38046, "ELEMENT_SET_NO": 999, "REV_AT_EPOCH": 77501, "BSTAR": 0.0008821512, "MEAN_MOTION_DOT": 0.00100992, "MEAN_MOTION_DDOT": 0}, "tle": {"line1": "1 38046U 12001A   25347.03247832  .00100992  00000+0  88215-3 0  9992", "line2": "2 38046  97.1753  53.4564 0001741 351.2292   8.8939 15.68632332775015"}}, "geometry": {"type": "Point", "coordinates": [-117.32205372191122, 50.13131519832623]}}, {"type": "Feature", "properties": {"norad_id": 38338, "name": "ARIRANG-3 (KOMPSAT-3)", "group": "resource", "lat": 5.922026605963977, "lon": -58.709796886556695, "alt_km": 686.5483784148328, "timestamp": "2025-12-13T13:34:34.731662+00:00", "meta": {"OBJECT_NAME": "ARIRANG-3 (KOMPSAT-3)", "OBJECT_ID": "2012-025B", "EPOCH": "2025-12-13T00:24:21.583872", "MEAN_MOTION": 14.61713357, "ECCENTRICITY": 0.00053454, "INCLINATION": 98.3322, "RA_OF_ASC_NODE": 301.6084, "ARG_OF_PERICENTER": 337.8639, "MEAN_ANOMALY": 22.233, "EPHEMERIS_TYPE": 0, "CLASSIFICATION_TYPE": "U", "NORAD_CAT_ID": 38338, "ELEMENT_SET_NO": 999, "REV_AT_EPOCH": 72414, "BSTAR": 0.00019881245, "MEAN_MOTION_DOT": 9.42e-06, "MEAN_MOTION_DDOT": 0}, "tle": {"line1": "1 38338U 12025B   25347.01691648  .00000942  00000+0  19881-3 0  9995", "line2": "2 38338  98.3322 301.6084 0005345 337.8639  22.2330 14.61713357724140"}}, "geometry": {"type": "Point", "coordinates": [-58.709796886556695, 5.922026605963977]}}, {"type": "Feature", "properties": {"norad_id": 38709, "name": "EXACTVIEW-1 (ADS-1B)", "group": "resource", "lat": -72.18370680350554, "lon": -113.44115689587531, "alt_km": 817.0379421964699, "timestamp": "2025-12-13T13:34:34.731672+00:00", "meta": {"OBJECT_NAME": "EXACTVIEW-1 (ADS-1B)", "OBJECT_ID": "2012-039C", "EPOCH": "2025-12-12T21:13:02.712288", "MEAN_MOTION": 14.24908204, "ECCENTRICITY": 0.0010667, "INCLINATION": 98.9636, "RA_OF_ASC_NODE": 95.2771, "ARG_OF_PERICENTER": 353.8159, "MEAN_ANOMALY": 6.2886, "EPHEMERIS_TYPE": 0, "CLASSIFICATION_TYPE": "U", "NORAD_CAT_ID": 38709, "ELEMENT_SET_NO": 999, "REV_AT_EPOCH": 69617, "BSTAR": 0.00013106237, "MEAN_MOTION_DOT": 2.6e-06, "MEAN_MOTION_DDOT": 0}, "tle": {"line1": "1 38709U 12039C   25346.88405917  .00000260  00000+0  13106-3 0  9995", "line2": "2 38709  98.9636  95.2771 0010667 353.8159   6.2886 14.24908204696178"}}, "geometry": {"type": "Point", "coordinates": [-113.44115689587531, -72.18370680350554]}}]}